{
  "type": "FeatureCollection",
  "features": [
    {
      "type": "Feature",
      "properties": {
        "norad_id": 66969,
        "name": "STARLINK-36149",
        "group": "last-30-days",
        "lat": -39.71511709350999,
        "lon": 60.8676025599693,
        "alt_km": 324.93280959348976,
        "timestamp": "2025-12-19T18:58:40.330042+00:00",
        "meta_object_name": "STARLINK-36149",
        "meta_object_id": "2025-288L",
        "meta_epoch": "2025-12-19T00:00:02.000160",
        "meta_mean_motion": 15.85002658,
        "meta_eccentricity": 0.00016812,
        "meta_inclination": 43.0013,
        "meta_ra_of_asc_node": 128.7762,
        "meta_arg_of_pericenter": 284.3173,
        "meta_mean_anomaly": 172.2535,
        "meta_ephemeris_type": 0,
        "meta_classification_type": "U",
        "meta_norad_cat_id": 66969,
        "meta_element_set_no": 999,
        "meta_rev_at_epoch": 283,
        "meta_bstar": -0.0067801278,
        "meta_mean_motion_dot": -0.01459692,
        "meta_mean_motion_ddot": 0,
        "tle_line1": "1 66969U 25288L   25353.00002315 -.01459692  00000+0 -67801-2 0  9991",
        "tle_line2": "2 66969  43.0013 128.7762 0001681 284.3173 172.2535 15.85002658  2834"
      },
      "geometry": {
        "type": "Point",
        "coordinates": [
          60.8676025599693,
          -39.71511709350999
        ]
      }
    },
    {
      "type": "Feature",
      "properties": {
        "norad_id": 66970,
        "name": "STARLINK-35703",
        "group": "last-30-days",
        "lat": -36.32398960472017,
        "lon": 71.80345271521138,
        "alt_km": 325.06535884942696,
        "timestamp": "2025-12-19T18:58:40.330055+00:00",
        "meta_object_name": "STARLINK-35703",
        "meta_object_id": "2025-288M",
        "meta_epoch": "2025-12-19T00:00:02.000160",
        "meta_mean_motion": 15.85002866,
        "meta_eccentricity": 0.00015404,
        "meta_inclination": 43.0014,
        "meta_ra_of_asc_node": 128.7523,
        "meta_arg_of_pericenter": 281.3703,
        "meta_mean_anomaly": 184.5646,
        "meta_ephemeris_type": 0,
        "meta_classification_type": "U",
        "meta_norad_cat_id": 66970,
        "meta_element_set_no": 999,
        "meta_rev_at_epoch": 283,
        "meta_bstar": -0.0069560582,
        "meta_mean_motion_dot": -0.0149307,
        "meta_mean_motion_ddot": 0,
        "tle_line1": "1 66970U 25288M   25353.00002315 -.01493070  00000+0 -69561-2 0  9996",
        "tle_line2": "2 66970  43.0014 128.7523 0001540 281.3703 184.5646 15.85002866  2832"
      },
      "geometry": {
        "type": "Point",
        "coordinates": [
          71.80345271521138,
          -36.32398960472017
        ]
      }
    },
    {
      "type": "Feature",
      "properties": {
        "norad_id": 66971,
        "name": "STARLINK-35678",
        "group": "last-30-days",
        "lat": -42.07352658122351,
        "lon": 48.31103219761091,
        "alt_km": 324.78467560515855,
        "timestamp": "2025-12-19T18:58:40.330065+00:00",
        "meta_object_name": "STARLINK-35678",
        "meta_object_id": "2025-288N",
        "meta_epoch": "2025-12-19T00:00:02.000160",
        "meta_mean_motion": 15.85025116,
        "meta_eccentricity": 0.0001683,
        "meta_inclination": 43.0017,
        "meta_ra_of_asc_node": 128.8018,
        "meta_arg_of_pericenter": 281.0736,
        "meta_mean_anomaly": 165.5235,
        "meta_ephemeris_type": 0,
        "meta_classification_type": "U",
        "meta_norad_cat_id": 66971,
        "meta_element_set_no": 999,
        "meta_rev_at_epoch": 283,
        "meta_bstar": -0.0065591066,
        "meta_mean_motion_dot": -0.0139141,
        "meta_mean_motion_ddot": 0,
        "tle_line1": "1 66971U 25288N   25353.00002315 -.01391410  00000+0 -65591-2 0  9991",
        "tle_line2": "2 66971  43.0017 128.8018 0001683 281.0736 165.5235 15.85025116  2833"
      },
      "geometry": {
        "type": "Point",
        "coordinates": [
          48.31103219761091,
          -42.07352658122351
        ]
      }
    },
    {
      "type": "Feature",
      "properties": {
        "norad_id": 66972,
        "name": "STARLINK-34846",
        "group": "last-30-days",
        "lat": -41.58562244550638,
        "lon": 51.708861830698204,
        "alt_km": 324.8392208334499,
        "timestamp": "2025-12-19T18:58:40.330075+00:00",
        "meta_object_name": "STARLINK-34846",
        "meta_object_id": "2025-288P",
        "meta_epoch": "2025-12-19T00:00:02.000160",
        "meta_mean_motion": 15.8501001,
        "meta_eccentricity": 0.00016949,
        "meta_inclination": 43.0014,
        "meta_ra_of_asc_node": 128.7948,
        "meta_arg_of_pericenter": 279.1316,
        "meta_mean_anomaly": 170.1208,
        "meta_ephemeris_type": 0,
        "meta_classification_type": "U",
        "meta_norad_cat_id": 66972,
        "meta_element_set_no": 999,
        "meta_rev_at_epoch": 283,
        "meta_bstar": -0.0066175211,
        "meta_mean_motion_dot": -0.01401282,
        "meta_mean_motion_ddot": 0,
        "tle_line1": "1 66972U 25288P   25353.00002315 -.01401282  00000+0 -66175-2 0  9990",
        "tle_line2": "2 66972  43.0014 128.7948 0001694 279.1316 170.1208 15.85010010  2835"
      },
      "geometry": {
        "type": "Point",
        "coordinates": [
          51.708861830698204,
          -41.58562244550638
        ]
      }
    },
    {
      "type": "Feature",
      "properties": {
        "norad_id": 66973,
        "name": "STARLINK-35778",
        "group": "last-30-days",
        "lat": -41.05006222482654,
        "lon": 54.78484867883813,
        "alt_km": 324.91782061146114,
        "timestamp": "2025-12-19T18:58:40.330095+00:00",
        "meta_object_name": "STARLINK-35778",
        "meta_object_id": "2025-288Q",
        "meta_epoch": "2025-12-19T00:00:02.000160",
        "meta_mean_motion": 15.85010455,
        "meta_eccentricity": 0.00016281,
        "meta_inclination": 43.0016,
        "meta_ra_of_asc_node": 128.7889,
        "meta_arg_of_pericenter": 281.586,
        "meta_mean_anomaly": 170.0757,
        "meta_ephemeris_type": 0,
        "meta_classification_type": "U",
        "meta_norad_cat_id": 66973,
        "meta_element_set_no": 999,
        "meta_rev_at_epoch": 283,
        "meta_bstar": -0.0066784054,
        "meta_mean_motion_dot": -0.01440689,
        "meta_mean_motion_ddot": 0,
        "tle_line1": "1 66973U 25288Q   25353.00002315 -.01440689  00000+0 -66784-2 0  9991",
        "tle_line2": "2 66973  43.0016 128.7889 0001628 281.5860 170.0757 15.85010455  2831"
      },
      "geometry": {
        "type": "Point",
        "coordinates": [
          54.78484867883813,
          -41.05006222482654
        ]
      }
    },
    {
      "type": "Feature",
      "properties": {
        "norad_id": 66974,
        "name": "STARLINK-35780",
        "group": "last-30-days",
        "lat": -40.45093969543865,
        "lon": 57.7286163217072,
        "alt_km": 324.8528091087155,
        "timestamp": "2025-12-19T18:58:40.330110+00:00",
        "meta_object_name": "STARLINK-35780",
        "meta_object_id": "2025-288R",
        "meta_epoch": "2025-12-19T00:00:02.000160",
        "meta_mean_motion": 15.85009218,
        "meta_eccentricity": 0.00017215,
        "meta_inclination": 43.0017,
        "meta_ra_of_asc_node": 128.7833,
        "meta_arg_of_pericenter": 282.1575,
        "meta_mean_anomaly": 171.8372,
        "meta_ephemeris_type": 0,
        "meta_classification_type": "U",
        "meta_norad_cat_id": 66974,
        "meta_element_set_no": 999,
        "meta_rev_at_epoch": 283,
        "meta_bstar": -0.0067052957,
        "meta_mean_motion_dot": -0.01445829,
        "meta_mean_motion_ddot": 0,
        "tle_line1": "1 66974U 25288R   25353.00002315 -.01445829  00000+0 -67053-2 0  9993",
        "tle_line2": "2 66974  43.0017 128.7833 0001721 282.1575 171.8372 15.85009218  2833"
      },
      "geometry": {
        "type": "Point",
        "coordinates": [
          57.7286163217072,
          -40.45093969543865
        ]
      }
    },
    {
      "type": "Feature",
      "properties": {
        "norad_id": 66975,
        "name": "STARLINK-35777",
        "group": "last-30-days",
        "lat": -39.02863546796117,
        "lon": 63.468949560346395,
        "alt_km": 324.93246815250404,
        "timestamp": "2025-12-19T18:58:40.330120+00:00",
        "meta_object_name": "STARLINK-35777",
        "meta_object_id": "2025-288S",
        "meta_epoch": "2025-12-19T00:00:02.000160",
        "meta_mean_motion": 15.85015656,
        "meta_eccentricity": 0.00016581,
        "meta_inclination": 43.0019,
        "meta_ra_of_asc_node": 128.771,
        "meta_arg_of_pericenter": 280.9395,
        "meta_mean_anomaly": 177.747,
        "meta_ephemeris_type": 0,
        "meta_classification_type": "U",
        "meta_norad_cat_id": 66975,
        "meta_element_set_no": 999,
        "meta_rev_at_epoch": 283,
        "meta_bstar": -0.0068228761,
        "meta_mean_motion_dot": -0.01468652,
        "meta_mean_motion_ddot": 0,
        "tle_line1": "1 66975U 25288S   25353.00002315 -.01468652  00000+0 -68229-2 0  9999",
        "tle_line2": "2 66975  43.0019 128.7710 0001658 280.9395 177.7470 15.85015656  2832"
      },
      "geometry": {
        "type": "Point",
        "coordinates": [
          63.468949560346395,
          -39.02863546796117
        ]
      }
    }
  ]
}